{
    "links": {
        "self": "http://www.neowsapp.com/rest/v1/neo/54097982?api_key=iIulBulltgU6a56xZRHN4H3l9WmuAYTsLGpBGhQ2"
    },
    "id": "54097982",
    "neo_reference_id": "54097982",
    "name": "(2020 XF1)",
    "designation": "2020 XF1",
    "nasa_jpl_url": "http://ssd.jpl.nasa.gov/sbdb.cgi?sstr=54097982",
    "absolute_magnitude_h": 21.69,
    "estimated_diameter": {
        "kilometers": {
            "estimated_diameter_min": 0.1220548318,
            "estimated_diameter_max": 0.2729229009
        },
        "meters": {
            "estimated_diameter_min": 122.054831812,
            "estimated_diameter_max": 272.922900914
        },
        "miles": {
            "estimated_diameter_min": 0.0758413329,
            "estimated_diameter_max": 0.1695863759
        },
        "feet": {
            "estimated_diameter_min": 400.4423744022,
            "estimated_diameter_max": 895.4163702348
        }
    },
    "is_potentially_hazardous_asteroid": false,
    "close_approach_data": [
        {
            "close_approach_date": "2020-12-01",
            "close_approach_date_full": "2020-Dec-01 12:55",
            "epoch_date_close_approach": 1606827300000,
            "relative_velocity": {
                "kilometers_per_second": "27.0337596808",
                "kilometers_per_hour": "97321.5348509488",
                "miles_per_hour": "60471.8170300242"
            },
            "miss_distance": {
                "astronomical": "0.2183760083",
                "lunar": "84.9482672287",
                "kilometers": "32668585.700782321",
                "miles": "20299317.8625891898"
            },
            "orbiting_body": "Earth"
        }
    ],
    "orbital_data": {
        "orbit_id": "1",
        "orbit_determination_date": "2020-12-07 03:12:02",
        "first_observation_date": "2020-12-05",
        "last_observation_date": "2020-12-07",
        "data_arc_in_days": 2,
        "observations_used": 29,
        "orbit_uncertainty": "9",
        "minimum_orbit_intersection": ".185223",
        "jupiter_tisserand_invariant": "3.830",
        "epoch_osculation": "2459189.5",
        "eccentricity": ".2910493351919632",
        "semi_major_axis": "1.639992992309469",
        "inclination": "52.30284781736879",
        "ascending_node_longitude": "246.4544634160586",
        "orbital_period": "767.1166610887926",
        "perihelion_distance": "1.16267412217832",
        "perihelion_argument": "195.3913532614183",
        "aphelion_distance": "2.117311862440619",
        "perihelion_time": "2459206.081351918458",
        "mean_anomaly": "352.2185412031431",
        "mean_motion": ".4692897681156354",
        "equinox": "J2000",
        "orbit_class": {
            "orbit_class_type": "AMO",
            "orbit_class_description": "Near-Earth asteroid orbits similar to that of 1221 Amor",
            "orbit_class_range": "1.017 AU < q (perihelion) < 1.3 AU"
        }
    },
    "is_sentry_object": false
}